     2.11           N: GPS NAV DATA                         RINEX VERSION / TYPE
teqc  2018Dec12     gpsops              20220217 01:04:03UTCPGM / RUN BY / DATE
Linux 2.6.32-573.12.1.x86_64|x86_64|gcc -static|Linux 64|=+ COMMENT
CHPI                                    MARKER NAME         COMMENT
41609M003                               MARKER NUMBER       COMMENT
4164613.9484 -4162456.9866 -2445028.7316                    COMMENT
                                                            COMMENT
This data is provided as a public service by NASA/JPL.      COMMENT
No warranty is expressed or implied regarding suitability   COMMENT
for use.  For further information, contact:                 COMMENT
Dave Stowers, NASA/JPL m/s 238-600                          COMMENT
4800 Oak Grove Drive, Pasadena CA 91109 USA                 COMMENT
                                                            END OF HEADER
 1 22  2 16  0  0  0.0 4.305113106966D-04-9.436007530894D-12 0.000000000000D+00
    5.700000000000D+01 8.218750000000D+01 4.316965533228D-09 1.023716221410D+00
    4.418194293976D-06 1.138441078365D-02 2.300366759300D-06 5.153668437958D+03
    2.592000000000D+05-1.098960638046D-07-1.911424590575D+00 9.313225746155D-08
    9.866716100101D-01 3.497500000000D+02 8.817480034979D-01-8.400707066026D-09
    1.039329006511D-10 1.000000000000D+00 2.197000000000D+03 0.000000000000D+00
    2.000000000000D+00 0.000000000000D+00 5.122274160385D-09 5.700000000000D+01
    2.520180000000D+05 4.000000000000D+00
 2 22  2 16  0  0  0.0-6.509292870760D-04-6.821210263297D-13 0.000000000000D+00
    9.300000000000D+01 8.728125000000D+01 4.743411867858D-09 1.168547525072D+00
    4.028901457787D-06 2.067628549412D-02 3.410503268242D-06 5.153688108444D+03
    2.592000000000D+05-1.881271600723D-07-2.000730965813D+00-4.433095455170D-07
    9.650296080996D-01 3.171562500000D+02-1.442106602283D+00-8.514283225500D-09
    1.960795960737D-10 1.000000000000D+00 2.197000000000D+03 0.000000000000D+00
    2.000000000000D+00 0.000000000000D+00-1.769512891769D-08 9.300000000000D+01
    2.557080000000D+05 4.000000000000D+00
 3 22  2 15 23 59 44.0-1.231865026057D-04-1.728039933369D-11 0.000000000000D+00
    3.000000000000D+00-1.247500000000D+02 4.365538985079D-09-1.310079274060D-01
   -6.483867764473D-06 3.893597633578D-03 4.297122359276D-06 5.153683151245D+03
    2.591840000000D+05 1.676380634308D-08-8.758464646923D-01 9.872019290924D-08
    9.725380541593D-01 3.012812500000D+02 9.563143029007D-01-8.264987127032D-09
   -4.257320191617D-10 1.000000000000D+00 2.197000000000D+03 0.000000000000D+00
    2.000000000000D+00 0.000000000000D+00 1.862645149231D-09 3.000000000000D+00
    2.558880000000D+05 4.000000000000D+00
 4 22  2 16  0  0  0.0-1.893197186291D-04 2.273736754432D-12 0.000000000000D+00
    1.010000000000D+02-4.803125000000D+01 4.119814463952D-09 2.807025614901D+00
   -2.449378371239D-06 1.698471372947D-03 1.232326030731D-05 5.153660793304D+03
    2.592000000000D+05-9.313225746155D-09 2.051346959978D-01 1.490116119385D-08
    9.615993533986D-01 1.418437500000D+02-3.062632861558D+00-7.702820853407D-09
    3.810873023872D-10 1.000000000000D+00 2.197000000000D+03 0.000000000000D+00
    2.000000000000D+00 0.000000000000D+00-4.190951585770D-09 6.130000000000D+02
    2.520180000000D+05 4.000000000000D+00
 6 22  2 16  0  0  0.0 2.027810551226D-04 1.193711796077D-11 0.000000000000D+00
    5.800000000000D+01 7.818750000000D+01 4.214818421248D-09 1.352048900115D+00
    3.945082426071D-06 2.697110641748D-03 2.194195985794D-06 5.153666866302D+03
    2.592000000000D+05-2.048909664154D-08-1.919697298687D+00-2.235174179077D-08
    9.860515785147D-01 3.461562500000D+02-9.583497939499D-01-8.159982753178D-09
    1.350056235261D-10 1.000000000000D+00 2.197000000000D+03 0.000000000000D+00
    2.000000000000D+00 0.000000000000D+00 3.725290298462D-09 5.800000000000D+01
    2.520180000000D+05 4.000000000000D+00
 7 22  2 15 23 59 44.0 3.105541691184D-04 2.728484105319D-12 0.000000000000D+00
    8.000000000000D+00 2.984375000000D+01 5.151643158044D-09 3.513108792683D-01
    1.667067408562D-06 1.554286840837D-02 5.761161446571D-06 5.153683109283D+03
    2.591840000000D+05-1.396983861923D-07 1.223918713973D+00 2.458691596985D-07
    9.506592072747D-01 2.652187500000D+02-2.290692679905D+00-8.506425755348D-09
    4.014452932364D-10 1.000000000000D+00 2.197000000000D+03 0.000000000000D+00
    2.000000000000D+00 0.000000000000D+00-1.117587089539D-08 8.000000000000D+00
    2.520180000000D+05 4.000000000000D+00
 8 22  2 15 23 59 44.0-5.634082481265D-05-1.477928890381D-12 0.000000000000D+00
    1.400000000000D+01 1.004687500000D+02 4.132672142383D-09-2.998827217008D+00
    5.189329385757D-06 7.297558942810D-03 1.205131411552D-05 5.153729000092D+03
    2.591840000000D+05-1.471489667892D-07-2.991010048420D+00-4.284083843231D-08
    9.650895511679D-01 1.505937500000D+02 1.052140264722D-01-7.638532461252D-09
   -8.964659128322D-11 1.000000000000D+00 2.197000000000D+03 0.000000000000D+00
    2.000000000000D+00 0.000000000000D+00 5.122274160385D-09 1.400000000000D+01
    2.581080000000D+05 4.000000000000D+00
 9 22  2 16  0  0  0.0-3.539999015629D-04 1.591615728103D-12 0.000000000000D+00
    4.400000000000D+01-6.121875000000D+01 4.200532111880D-09-2.630094007458D+00
   -3.123655915260D-06 2.254404593259D-03 1.229345798492D-05 5.153631063461D+03
    2.592000000000D+05 3.166496753693D-08 1.522003043707D-01-1.862645149231D-09
    9.546069604688D-01 1.400000000000D+02 1.869592412988D+00-7.732107787611D-09
    2.964409193828D-10 1.000000000000D+00 2.197000000000D+03 0.000000000000D+00
    2.000000000000D+00 0.000000000000D+00 1.396983861923D-09 4.400000000000D+01
    2.520180000000D+05 4.000000000000D+00
11 22  2 16  0  0  0.0-8.771242573857D-05 1.216449163621D-11 0.000000000000D+00
    5.500000000000D+01 7.356250000000D+01 4.743054710124D-09 3.137565920374D+00
    3.762543201447D-06 2.686989028007D-04 1.858919858932D-06 5.153769357681D+03
    2.592000000000D+05-2.048909664154D-08-1.867649628521D+00 2.980232238770D-08
    9.617687929592D-01 3.444062500000D+02 2.874822146785D+00-8.413564744457D-09
    1.371485699313D-10 1.000000000000D+00 2.197000000000D+03 0.000000000000D+00
    3.200000000000D+01 6.300000000000D+01-8.847564458847D-09 5.500000000000D+01
    2.534580000000D+05 4.000000000000D+00
14 22  2 16  0  0  0.0-8.432194590569D-05-4.547473508865D-12 0.000000000000D+00
    1.410000000000D+02-3.525000000000D+01 4.922705050425D-09-2.347102065193D-01
   -1.823529601097D-06 1.442629494704D-03 7.819384336472D-06 5.153643074036D+03
    2.592000000000D+05 1.303851604462D-08 2.305731972226D+00-1.117587089539D-08
    9.535778765976D-01 2.248437500000D+02 3.019778468500D+00-8.146410759278D-09
   -5.321650239522D-10 1.000000000000D+00 2.197000000000D+03 0.000000000000D+00
    2.000000000000D+00 0.000000000000D+00-7.450580596924D-09 1.410000000000D+02
    2.546580000000D+05 4.000000000000D+00
16 22  2 15 23 59 44.0-4.699300043285D-04-4.888534022029D-12 0.000000000000D+00
    7.000000000000D+00-2.812500000000D+01 4.475186409477D-09-2.155217540501D+00
   -1.791864633560D-06 1.276100741234D-02 8.216127753258D-06 5.153600393295D+03
    2.591840000000D+05 2.142041921616D-07 2.355651866081D+00-1.005828380585D-07
    9.701540667653D-01 2.220000000000D+02 7.086203502534D-01-7.793538917893D-09
   -3.985880313628D-10 1.000000000000D+00 2.197000000000D+03 0.000000000000D+00
    2.000000000000D+00 0.000000000000D+00-1.024454832077D-08 7.000000000000D+00
    2.555160000000D+05 4.000000000000D+00
20 22  2 16  0  0  0.0 5.166879855096D-04-2.273736754432D-13 0.000000000000D+00
    2.000000000000D+01-9.246875000000D+01 5.050567519267D-09 2.038760911055D+00
   -4.768371582031D-06 5.151680670679D-03 2.538785338402D-06 5.153748292923D+03
    2.592000000000D+05-2.235174179077D-08-1.030322987671D+00 3.352761268616D-08
    9.416415622593D-01 3.235312500000D+02 3.133345170575D+00-8.517497645108D-09
   -4.200174954146D-10 1.000000000000D+00 2.197000000000D+03 0.000000000000D+00
    2.000000000000D+00 0.000000000000D+00-8.381903171539D-09 2.000000000000D+01
    2.560680000000D+05 4.000000000000D+00
26 22  2 16  0  0  0.0 1.835571601987D-04 3.183231456205D-12 0.000000000000D+00
    7.100000000000D+01-3.215625000000D+01 5.307363930154D-09-1.206230296448D+00
   -1.776963472366D-06 6.876807194203D-03 6.692484021187D-06 5.153693965912D+03
    2.592000000000D+05 1.098960638046D-07 2.213288731971D+00-5.774199962616D-08
    9.383759619139D-01 2.336875000000D+02 3.702192388088D-01-8.343561828555D-09
   -4.060883437809D-10 1.000000000000D+00 2.197000000000D+03 0.000000000000D+00
    2.800000000000D+00 0.000000000000D+00 6.984919309616D-09 7.100000000000D+01
    2.520180000000D+05 4.000000000000D+00
27 22  2 16  0  0  0.0 1.206942833960D-04 1.614353095647D-11 0.000000000000D+00
    1.500000000000D+01 1.042812500000D+02 3.886233305788D-09-3.038327536823D+00
    5.204230546951D-06 1.023255509790D-02 1.201033592224D-05 5.153658733368D+03
    2.592000000000D+05-7.264316082001D-08-2.971592461725D+00-1.713633537292D-07
    9.737911590648D-01 1.547187500000D+02 6.386457761943D-01-7.499955260384D-09
   -6.464554988949D-11 1.000000000000D+00 2.197000000000D+03 0.000000000000D+00
    2.000000000000D+00 0.000000000000D+00 1.396983861923D-09 1.500000000000D+01
    2.544360000000D+05 4.000000000000D+00
28 22  2 16  0  0  0.0 3.996281884611D-04-8.299139153678D-12 0.000000000000D+00
    9.900000000000D+01-3.059375000000D+01 4.391254341941D-09-2.597943401239D+00
   -1.445412635803D-06 1.681109308265D-02 8.201226592064D-06 5.153693426132D+03
    2.592000000000D+05 1.192092895508D-07 2.359114740930D+00 1.695007085800D-07
    9.693048355057D-01 2.200312500000D+02-1.288269873360D+00-7.591030482604D-09
   -5.018066165455D-10 1.000000000000D+00 2.197000000000D+03 0.000000000000D+00
    4.000000000000D+00 6.300000000000D+01-1.117587089539D-08 9.900000000000D+01
    2.583780000000D+05 4.000000000000D+00
